HOTEL_NAME,ADDRESS,COMMUNITY,Parish,Longitude,Latitude
Hotel Versalles,42 Longbridge Rd. May Pen P.O,May Pen,Clarendon,-77.88358697,18.5168814
Milk River MineraL Sp,Milk River P.O.,Milk River,Clarendon,-77.65670675,18.49632278
J.J'S Guest House,P.O. Box 20,Green Island,Hanover,-77.87646703,18.5048083
Round Hill Hotel,Hopewell P.O. Box 64 Montego,Hopewell,Hanover,-77.32492091,18.45668283
Walcome Wharf,,Hopewell,Hanover,-76.89523172,18.40435483
Global Villa,"Esher, Lucea P.O.",Lucea,Hanover,-77.9288916,18.44036064
West Palm Hotel,Fort Charlotte Dr. Lucea P.O.,Lucea,Hanover,-76.88767224,18.37107102
Grand Lido (All Inclu,"N.M. Boulevard, P.O. Box 88,",Negril,Hanover,-77.92702595,"18.489067342,"
Hedonism 2 (All Inclu,"N.M. Boulevard, P.O. Box 25,",Negril,Hanover,-77.92247555,18.47015468
Hotel Riu,Tropical Bay Bloody Bay Negri,Negril,Hanover,-77.8974926,18.47606972
Negril Gardens Beach,"N.M. Boulevard P.O. Box 3058,",Negril,Hanover,-77.53779397,18.48487481
Sandals Negril (All I,"N.M. Boulevard, P.O. Box 2 Ne",Negril,Hanover,-77.31367934,18.452956
Blue Bird,P.O. Box 1206,Sandy Bay,Hanover,-78.35431428,18.24379446
Calabash Villa,"Tryall Beach, P.O. Box 1206",Sandy Bay,Hanover,-78.33999559,18.33842233
Calypso Villa,"P.O. Box 1206, Montego Bay",Sandy Bay,Hanover,-78.33989943,18.2915623
Ceilo Villa,"Tryall Beach, P.O. Box 1206",Sandy Bay,Hanover,-78.33725675,18.32073746
Clive House,Montego Bay P.O. Box 1206,Sandy Bay,Hanover,-78.26776013,18.22023386
Hart House,c/o Tryall  Golf & Tennis Bea,Sandy Bay,Hanover,-77.92366187,18.46182938
Linger Longer,"P.O. Box 1206, Montego Bay",Sandy Bay,Hanover,-77.85112957,18.51422362
Little Hill Villla,"P.O. Box 1206, Montego Bay P.",Sandy Bay,Hanover,-77.85074507,18.02476235
Round House Villa,Tryall Beach,Sandy Bay,Hanover,-77.32448742,18.46335583
Florizel Court,Lucea P.O.,Spanish Hill,Hanover,-77.96920407,18.44999403
Balbec Villa,"c/o Tryall Villas, P.O. Box 1",Tryall,Hanover,-78.36456406,18.26067061
Bumper's Nest Villa,P.O. Box 1206,Tryall,Hanover,-78.34080442,"18.289208112,"
Coo - Yah,"P.O. Box 1206, Montego Bay",Tryall,Hanover,-78.07632373,18.45109963
Count's Cottage,"P.O. Box 1206, Montego Bay",Tryall,Hanover,-78.06151925,18.44699991
Eagles Nest Villa,Montego Bay P.O. Box 1206,Tryall,Hanover,-78.05411934,18.44828823
Elysian Plain,"c/o Tryall Villas, P.O. Box 1",Tryall,Hanover,-78.052863,18.44451343
Eureka Villa,"Montego Bay, P.O. Box 1206",Tryall,Hanover,-78.02726793,18.16901848
Eve Song,"Tryall Club & Villas, Montego",Tryall,Hanover,-78.01525801,18.4554632
Fairwinds Villa,"Tryall Club Resorts & Villas,",Tryall,Hanover,-77.99216842,18.44268003
Fern Hill,"P.O. Box 1206, Montego Bay P.",Tryall,Hanover,-77.98706625,18.44944593
First Look Villa,"P.O. Box 1206, Montego Bay P.",Tryall,Hanover,-77.97475347,18.10696633
Following Seas Villa,"P.O. Box 1206, Montego Bay P.",Tryall,Hanover,-77.96706281,18.39159591
Folly Villa,"P.O. Box 1206, Montego Bay P.",Tryall,Hanover,-77.96658423,18.43483793
Halcyon Villa,"P.O. Box 1206, Montego Bay P.",Tryall,Hanover,-77.924234,18.46773476
Heron Cove,"Tryall Club Resort, P.O. Box",Tryall,Hanover,-77.92104608,18.47609664
Hibiscus Villa (A8),"Tryall Club Resort, P.O. Box",Tryall,Hanover,-77.92014033,18.47078471
Hill Top Villas,"c/o Tryall Villas, P.O. Box 1",Tryall,Hanover,-77.91597519,18.48622514
Irie Villa,"P.O. Box 1206, Montego Bay P.",Tryall,Hanover,-77.87801382,18.50281607
La Mer Bleu Villa,Tryall Club Resort,Tryall,Hanover,-77.85921077,"18.517124028,"
Ma Moura,"P.O. Box 1206, Montego Bay P.",Tryall,Hanover,-77.83825125,17.96656548
Mahogany Hill,"P.O. Box 1206, Montego Bay P.",Tryall,Hanover,-77.82299287,18.5221655
Mahogany Mews,"P.O. Box 1206, Montego Bay P.",Tryall,Hanover,-77.81373807,18.52169779
Merry Land,"P.O. Box 1206, Montego Bay P.",Tryall,Hanover,-77.73594488,17.86410867
Midway Villa,"P.O. Box 1206, Montego Bay P.",Tryall,Hanover,-77.68798995,18.01518248
My Way Villa,"P.O. Box 1206, Montego Bay P.",Tryall,Hanover,-77.54029788,18.48367682
No Le Hace,"P.O. Box 1206, Montego Bay P.",Tryall,Hanover,-77.53579442,18.48545884
Phoenix Villa,"P.O. Box 1206, Montego Bay P.",Tryall,Hanover,-77.50442761,18.03897698
Tryall Golf & Tennis,P.O. Box 1206,Tryall,Hanover,-77.04222765,"18.420575152,"
Olympia Crown Hotel,53 Molynes Road,Kingston,Kingston,-77.53245194,18.47983526
Hotel Four Seasons,18 Ruthven Road,Kingston 10,Kingston,-77.90408323,18.3638987
Indies Hotel,5 Holborn Road,Kingston 10,Kingston,-77.87975518,"18.505535267,"
Terra Nova Hotel,17 Waterloo Road,Kingston 10,Kingston,-77.09129557,"18.40273275,0"
Alhambra Inn,1 Tucker Avenue,Kingston 3,Kingston,-78.36661595,18.26627378
Central Courts Apartm,47 Old Hope Road,Kingston 5,Kingston,-78.33708379,18.300362
Chelsea Manor Apartme,11-17 Chelsea Avenue,Kingston 5,Kingston,-78.33667306,18.324419
Christar Villas Limit,99a Hope Road,Kingston 5,Kingston,-78.33630812,18.32306646
Knutsford Court Hotel,16 Chelsea Avenue,Kingston 5,Kingston,-77.86343833,18.51327272
Sunset Inn,1a Altamont Cresent,Kingston 5,Kingston,-77.09921567,18.41285584
Glenview Apartments,3 Mayfair Avenue,Kingston 6,Kingston,-77.9295464,18.48571603
Iris Inn,26 Tankerville Avenue,Kingston 6,Kingston,-77.87783096,18.50472668
King's House Apartmen,22 1/2 King's House Road,Kingston 6,Kingston,-77.86482894,"18.519483786,"
Medallion Hall Hotel,53 Hope Road,Kingston 6,Kingston,-77.75209186,17.88235456
The Gardens,23 Liguanea Avenue,Kingston 6,Kingston,-77.08235345,18.41174122
Abahati Hotel,7 Grosvenor Terrace,Kingston 8,Kingston,-78.36736031,18.26911051
Old Church Apartments,5 Old Church Road,Kingston 8,Kingston,-77.53252736,18.48583279
Crieffe Court,10 Crieffe Road,,Kingston,-78.06016607,18.44634432
The Kensington,15-15a Kensington Cresent,,Kingston,-77.0786186,"18.41285009,0"
Altamont Court Hotel,1-3 Altamont Terrace,Kingston 5,Kinston,-78.36653609,18.27204046
Hotel Villa bella,Sedburgh,Christiana,Manchester,-77.88215213,18.51416611
Astra Country Inn,62 Ward Ave. Mandeville,Mandeville,Manchester,-78.36509113,18.27037064
Golf View Hotel,5 Caledonia Rd. Mandeville.,Mandeville,Manchester,-77.92723052,"18.479029963,"
Kariba Kariba Guest H,Lots 15 & 35 c/o 9 Caledonia,Mandeville,Manchester,-77.86722268,18.51475544
Mandeville Flats,"7 Hillview Flats, Belvenie He",Mandeville,Manchester,-77.80629952,18.52015213
Mandeville Hotel,"4 Hotel Street, Mandeville",Mandeville,Manchester,-77.806003,18.51630923
Rodan Guest House,6 Wesley Avenue,Mandeville,Manchester,-77.33456481,18.4609395
Imani Ashi Villa,190 Patterson Avenue,Ironshore,Montego Ba,-77.87976148,18.5193639
Villa Dee Phil,"136 Patterson Avenue, P.O. Bo",Ironshore,Montego Ba,-77.01130843,18.40266188
Golden Acres Villa,"P.O. Box 332, Ocho Rios P.O.",Race Course,Oracabessa,-77.92849911,18.48085297
Belmont Villa,"c/o 1 Oval Road, Kgn 5. Drape",Alligator Head,Portland,-78.35821801,18.24487619
Bolthole,Port Antonio P.O. Box 276,Anchovy Valley,Portland,-78.34425729,18.28380784
Bonnie Amie,San San,Blue Hole,Portland,-78.3436304,18.28432441
Spindle Top,San San,"Blue Hole,",Portland,-77.10737225,18.40731538
Drapers San,,Drapers,Portland,-78.05509936,18.44632166
Turtle Cove,,Drapers,Portland,-77.04187062,18.4215197
Crystal Cove,"San San Bay, Blue Lagoon",Fairy Hill,Portland,-78.06003132,18.4449338
Nautilus Villa,Blue Lagoon,Fairy Hill,Portland,-77.5390048,18.48290172
Paradise Inn,Snow Hill,Fairy Hill,Portland,-77.52905916,18.48354377
Sand Wood,,Fairy Hill,Portland,-77.31502634,18.45240389
Sweet Harmony Guest H,"Boston, Fairy Hill P.O.",Fairy Hill,Portland,-77.09856915,18.40948967
Chateau En Exotica,Port Antonio P.O. 14,Folly Estates,Portland,-78.33672501,18.30025606
Coconut Isle,Long Bay,Long Bay,Portland,-78.13503247,18.20876311
Nirvana,Main Road,Long Bay,Portland,-77.53639669,18.48215848
Rolling Surf,55a East Palm Avenue,Long Bay,Portland,-77.33364903,"18.463641089,"
Sea Cliff Resort,,Long Bay,Portland,-77.22271665,18.44522539
Bonnie View Plantatio,Richmond Hill P.O. 82,Port Antonio,Portland,-78.3432292,18.28420529
Casa Great House,P.O. Box 170,Port Antonio,Portland,-78.33775986,18.33342591
College of Agricultur,P.O. Box 170,Port Antonio,Portland,-78.07839667,18.44995835
De Dolphin Guest Hous,,Port Antonio,Portland,-78.05767188,"18.448716822,"
Demontevin Lodge Gues,21 Fort George Street,Port Antonio,Portland,-78.05730836,18.45165842
Dragon Bay,Zion Hill P.O. Box176,Port Antonio,Portland,-78.05513842,18.44523438
Emerald Forrest,P.O. Box 210,Port Antonio,Portland,-78.05234233,18.44527524
Faith Cottage,Dolphin Bay,Port Antonio,Portland,-77.99122273,18.44160621
Fern Hill Club,San San P.O. Box 100 Port Ant,Port Antonio,Portland,-77.9827436,18.44396221
Frenchman's Cove Vill,Frenchman's Cove P.O. Box 101,Port Antonio,Portland,-77.94542677,18.44471515
Goblin Hill Villas,"San San , Port Antonio P.O. B",Port Antonio,Portland,-77.92851408,18.4836947
Holiday Home,12 King Street,Port Antonio,Portland,-77.91247419,18.46542441
Ivan Hoe's Guest Hous,9 Queen Street,Port Antonio,Portland,-77.8764918,18.50193865
Jamaica Crest Villas,P.O. Box 165,Port Antonio,Portland,-77.8744397,18.50605615
Jamaica Palace Hotel,P.O. Box 277 Port antonio,Port Antonio,Portland,-77.87292191,18.50500371
Mocking Bird Hill,Drapers P.O. Box 254 Port Ant,Port Antonio,Portland,-77.6139265,17.90717093
Panorama Villa,San San,Port Antonio,Portland,-77.52969638,18.483349
Passley Gardens,P.O. Box 179,Port Antonio,Portland,-77.52775679,18.48469266
Pixie Hill,"San San, Port Antonio P.O. Bo",Port Antonio,Portland,-77.46168514,18.46976465
San Cove,P.O. Box 276,Port Antonio,Portland,-77.31965994,18.4490457
Sea Shell,San San,Port Antonio,Portland,-77.16943433,18.4286853
Shadows Guest House,40 West Street,Port Antonio,Portland,-77.16150631,18.42540438
Sunnyside Hotel,18 Fort George Street,Port Antonio,Portland,-77.10076129,18.41087175
Tim Bamboo,5 Eveleigh Road,Port Antonio,Portland,-77.06843888,18.41651012
Trident Hotel,P.O. Box 119 Port Antonio,Port Antonio,Portland,-77.04593754,18.42293441
I-Tal Village,"Rodney Hall, Black Hill P.A.",Rodney Hall,Portland,-77.87657653,18.50571702
Chrysanda Villa,San San,San San,Portland,-78.33617983,18.31215911
Deja Vu,San San,San San,Portland,-78.05758466,18.45179294
Gremlin,"San San, P.O. Box 210, Port A",San San,Portland,-77.92646457,18.49157543
Halcyon,"San San, P.O. Box 138",San San,Portland,-77.92440551,18.48814129
San San Tropez,San San,San San,Portland,-77.3171032,18.46860862
Sand Spice,San San,San San,Portland,-77.31529565,18.47125499
Shoreham Green Villa,San San,San San,Portland,-77.15214968,18.42049041
Blue Beyond Villas,,Snow Hill,Portland,-78.35565508,18.24456008
Pleasant View Inn,,St. Margaret's Bay,Portland,-77.45410802,18.46155398
Rio Vista Resort & Vi,P.O. Box 4,St. Margaret's Bay,Portland,-77.35098464,18.38823731
Villa Paola,Drapers P.O.,Williamsfield,Portland,-76.95398079,18.40170162
Jamaica Heights,"Spring Bank Road, P.O. Box 66",,Portland,-77.87348698,18.52015651
Navy Island Marina Re,Port Antonio P.O. Box 188,,Portland,-77.53869715,18.48185783
Sea Scape,Long Bay,,Portland,-77.17041752,18.43391548
Thrift's Inn,1 Bridge Street,,Portland,-77.0741673,18.4144201
Almond Tree,Arawak P.O. Box 332,Mammee Bay,St Ann,-78.36654386,18.26398372
Hikaru Villa,Billy's Bay P.O.,Billy's Bay,St Elizabe,-77.91776178,18.47086694
Airport Inn,,Montego Bay,St James,-78.36723003,18.27331032
Busha's Country Resor,,Montego Bay,St James,-78.34061605,18.2900145
Lethe Estate,P.O. Box 23 (Montego Bay),,St James,-77.85301084,18.02577024
Strawberry Hill,"Irish Town, St. Andrew",Irish Town,St. Andrew,-77.10516764,18.41105139
Krystal K' Villa,"Mammee Bay, Arawak",Arawak,St. Ann,-77.86294092,18.51752886
Pimento Lodge,,Breadnut Hill,St. Ann,-77.50137423,18.04932996
Knutsford Great House,"P.O. Box 444, Brown's Town P.",Brown's Town,St. Ann,-77.86304458,18.51416909
Treasure Trove,"P.O. Box 25, Brown's Town P.O",Brown's Town,St. Ann,-77.04805926,18.42090434
Bauhania Cluster,"Colombus Hieghts, P.O. Box 38",Colombus Hieghts,St. Ann,-78.36356349,18.27044373
Portside Resort Villa,Discovery Bay P.O. Box 42.,Diccovery Bay,St. Ann,-77.40146334,18.46865014
A Summer Place,Fortland Road,Discovery Bay,St. Ann,-78.36758632,"18.26941738,0"
Amore Villas,"Stewart Town Road, P.O. Box 4",Discovery Bay,St. Ann,-78.36641987,18.26496944
Beach Nut,Bengai Beach,Discovery Bay,St. Ann,-78.36097488,18.25365403
Bean Bird Lodge,Fortland Road,Discovery Bay,St. Ann,-78.35856198,18.24615094
Cara Mia Villa,P.O. Box 42,Discovery Bay,St. Ann,-78.33940933,18.28930658
Casita,Queen's Highway,Discovery Bay,St. Ann,-78.33768688,18.31056162
Coconut Villas,Fortland Road,Discovery Bay,St. Ann,-78.13274408,18.21656218
Fortland's Point,Fortland's Road,Discovery Bay,St. Ann,-77.96417119,"18.09078116,0"
Grosvenor Villa,,Discovery Bay,St. Ann,-77.92626045,18.47864088
Hoibin,Bengal,Discovery Bay,St. Ann,-77.91322589,"18.465969201,"
Keela Wee Villa,12 Fortland Road,Discovery Bay,St. Ann,-77.86673722,18.51788402
Osbourne Great House,Queen Hytha Road,Discovery Bay,St. Ann,-77.53066091,18.48323631
Sea Grapes,"Fortland Rd, c/o P.O Box 302",Discovery Bay,St. Ann,-77.18749671,18.4354463
Sea Haven,Fortland Bay,Discovery Bay,St. Ann,-77.1719978,18.43168253
Snug Harbour,Fortlands Road,Discovery Bay,St. Ann,-77.10931262,18.40710933
St. Vincent,,Discovery Bay,St. Ann,-77.10628056,18.4085685
Sugar Bay,Fortland Road,Discovery Bay,St. Ann,-77.10514012,18.41073719
Sundance Villa,Lot 2b Osbourne,Discovery Bay,St. Ann,-77.10303128,18.41080352
Sundown Villa,"Fortland Rd, c/o PO Box 51 Oc",Discovery Bay,St. Ann,-77.10299562,18.41212569
The Accomodationer,"P.O. Box 89, Main Street",Discovery Bay,St. Ann,-77.08870369,18.40410857
Villa Brawta,Lot 2 Osbourne,Discovery Bay,St. Ann,-77.02906547,18.41843433
Rio Chico,"P.O. Box 51, Ocho Rios, St. A","Dunn's River, Ocho",St. Ann,-77.35299899,"17.853811393,"
Murphy Hill Lodging,Epworth District,Epworth,St. Ann,-77.54054448,18.4878146
Bolt House Villa,Ocho Rios P.O. Box 118,Galina,St. Ann,-78.34475912,18.2835034
Chukka Cove Villas,Laughlands P.O. Box 160,Laughlands,St. Ann,-78.33364914,18.34774747
Bal - Inn,"Mammee Bay, St Ann's Bay P.O.",Mammee Bay,St. Ann,-78.36472343,18.25876877
Bay Point Villas 1-4,Arawak P.O.,Mammee Bay,St. Ann,-78.36352257,18.25544534
Blue Waters,Old Fort Bay,Mammee Bay,St. Ann,-78.34567204,"18.278108393,"
Blundell House,Arawak P.O.,Mammee Bay,St. Ann,-78.34491753,18.28253827
Camelot,,Mammee Bay,St. Ann,-78.33984937,18.33976787
Cannon Cottage,Old Fort Bay,Mammee Bay,St. Ann,-78.33984472,18.2905205
Cannon Villas,Arawak P.O.,Mammee Bay,St. Ann,-78.33942994,18.29167202
Casa Blanca,Arawak P.O. 305,Mammee Bay,St. Ann,-78.33825694,18.30155184
Cirrohosis on the Sea,"Mammee Beach Road, Arawak P.O",Mammee Bay,St. Ann,-78.31493785,18.27505344
Coco Palms,Kemney Road,Mammee Bay,St. Ann,-78.18757648,18.45254139
Cove Villa,"Lot 91 Peart Avenue, Mammee B",Mammee Bay,St. Ann,-78.06113623,18.44826875
Drabar Villa,Arawak P.O. Box 332,Mammee Bay,St. Ann,-78.05543611,"18.448430173,"
Georgianna,Arawak P.O.,Mammee Bay,St. Ann,-77.9371013,18.41176228
Heaven Can Wait,Arawak P.O.,Mammee Bay,St. Ann,-77.92272143,18.47423057
Kima,"10a Mammee Bay, Arawak P.O.",Mammee Bay,St. Ann,-77.86496432,18.51702788
Laurenita Villa,Pratt Cresent,Mammee Bay,St. Ann,-77.85562376,18.51594544
Living Waters,Arawak P.O.,Mammee Bay,St. Ann,-77.84753866,"18.026780489,"
Mermaid Villa,St. Ann's Bay P.O.,Mammee Bay,St. Ann,-77.73694052,17.88979508
Nashville Villa,"Mammee Beach Rd, Arawak P.O B",Mammee Bay,St. Ann,-77.53980376,18.48126152
Ocean Front Resorts,"Lot 11 Mammee Bay, P.O. Box 3",Mammee Bay,St. Ann,-77.53359016,18.48457005
Riviera,"c/o 47 Hope Road, Kgn. 6",Mammee Bay,St. Ann,-77.34291286,18.46299804
Seven Seven,Arawak,Mammee Bay,St. Ann,-77.16233291,18.42705028
Shoe String,"67 Kenmey Road, Arawak P.O.",Mammee Bay,St. Ann,-77.15589892,18.42306884
Silver Palms Guest Ho,"Old Fort Bay, Arawak P.O.",Mammee Bay,St. Ann,-77.1247645,18.41206846
Terra Nova,Arawak P.O.,Mammee Bay,St. Ann,-77.09215451,18.41244882
Xanadu,"c/o 7 DaCosta Drive, Ocho Rio",Mammee Bay,St. Ann,-76.7815191,"18.018512342,"
Cecelia Villa,124 Seaview Drive,Mansfield,St. Ann,-78.33729508,18.30293206
After Glow,"Coconut Grove, P.O. Box 83",Ocho Rios,St. Ann,-78.36726463,18.27077001
Beaches Grande Sport,Main Street Ocho Rios,Ocho Rios,St. Ann,-78.36037344,18.24775033
Beaches Royal Plantat,Main St. P.O. Box 2 Ocho Rios,Ocho Rios,St. Ann,-78.35951595,"18.248423102,"
Carib Ocho Rios Apts,"Carib Ocho Rios, P.O. Box  32",Ocho Rios,St. Ann,-78.33927888,18.29555071
Carleen's by the  Sea,85 Main Street,Ocho Rios,St. Ann,-78.33838639,18.29787569
Clearwater Villa,Coconut Grove Main Street,Ocho Rios,St. Ann,-78.2737926,18.38827268
Couples Ocho Rios,Tower Isle Ocho Rios P.O. Box,Ocho Rios,St. Ann,-78.06120085,18.44447722
Crystal Ripple Beach,White River Bay P.O. Box 24,Ocho Rios,St. Ann,-78.05970028,18.44540838
Golden Sands 1-3,"Old Road, P.O. Box 22",Ocho Rios,St. Ann,-77.92814059,18.4802796
Hibiscus Lodge Hotel,83 Main Street P.O. Box 52,Ocho Rios,St. Ann,-77.92037043,18.47288915
Hide Away 1 & 2,Coconut Grove,Ocho Rios,St. Ann,-77.91940556,18.47582374
Jamaica Grande,P.O Box 100 Ocho Rios,Ocho Rios,St. Ann,-77.87421588,18.50299084
Jamaica Inn Hotel,P.O. Box 1 Ocho Rios P.O.,Ocho Rios,St. Ann,-77.8732642,18.50390742
Jerico Villa,7 Dacosta Drive,Ocho Rios,St. Ann,-77.86863883,18.50267195
Karori Villa,Ridge Estate,Ocho Rios,St. Ann,-77.86687572,18.51935532
La Peniciona Guest Ho,"3 Short Lane, Och Rios P.O.",Ocho Rios,St. Ann,-77.85714762,18.51668738
Little Shaw Park Gues,"21 Shaw Park Road, Ocho Rios",Ocho Rios,St. Ann,-77.8486614,18.51803545
Marine View Hotel,9 James Avenue,Ocho Rios,St. Ann,-77.76137616,17.87857221
North Bend Apartments,P.O. Box 322,Ocho Rios,St. Ann,-77.53517022,"18.477893611,"
Ocean Snads Resort,14 James Ave. Ocho Rios  P.O.,Ocho Rios,St. Ann,-77.53304294,18.4838741
Parkway Inn,"60 Main Street, Ocho Rios, P.",Ocho Rios,St. Ann,-77.52815552,18.484571
Pineapple Penthouse,P.O. Box 263 Ocho Rios P.O.,Ocho Rios,St. Ann,-77.49837161,18.04818807
Piper's Cove Resort,Salem Runaway Bay P.O. Box 29,Ocho Rios,St. Ann,-77.49668387,"18.052416517,"
Roaring Pavillion,Laughing Waters,Ocho Rios,St. Ann,-77.34171726,18.4620505
San Souci Lido (All I,Ocho Rios P.O. Box 103,Ocho Rios,St. Ann,-77.31692631,18.46994631
Sand Castles,Main St. Ocho Rios P.O.,Ocho Rios,St. Ann,-77.31556005,18.45302423
Sandals Dunns River,Mammee Bay,Ocho Rios,St. Ann,-77.31448199,18.45361419
Sandals Ocho Rios (Al,Main St. Ocho Rios P.O.,Ocho Rios,St. Ann,-77.31345597,18.46691662
Santa Maria Apartment,Pineapple Place,Ocho Rios,St. Ann,-77.31241985,18.45246762
Seville Manor,84 Main Street,Ocho Rios,St. Ann,-77.16198537,18.42430303
Silver Seas,66 James Ave. P.O. Box 81.,Ocho Rios,St. Ann,-77.11195293,18.40386349
Sombra Apartments,127 Main Street,Ocho Rios,St. Ann,-77.10853906,18.4067361
Stone Away Villa,7 DaCosta Drive,Ocho Rios,St. Ann,-77.10574064,18.39697881
Villa Gabriella,7 Dacosta Drive,Ocho Rios,St. Ann,-76.98293775,18.40413733
Village Hotel,54 Main St. Ocho Rios P.O.,Ocho Rios,St. Ann,-76.93447566,18.41427887
Four Winds Villa,"Old Fort Bay, Arawak P.O.",Old Fort,St. Ann,-77.94772391,18.43839331
Concorde Villa,"Rio Nuevo, Boscobell P.O.",Rio Nuevo,St. Ann,-78.07685135,"18.451061187,"
"""Las Palmas""",,Runaway Bay,St. Ann,-78.36851404,18.27004435
Alamanda Inn,"39 Salem Beach, P.O. Box 65",Runaway Bay,St. Ann,-78.36694566,18.27205774
Ambiance,P.O.Box 20 Runaway Bay.,Runaway Bay,St. Ann,-78.36647616,18.26704323
Bahia Villa,Main Street,Runaway Bay,St. Ann,-78.36478783,18.25751289
Bitterwood Villa,"Cardiff Hall, P.O. Box 64",Runaway Bay,St. Ann,-78.35571579,18.24619062
Boonoonoonoos Villa,"P.O. Box 1, Cardiff Hall",Runaway Bay,St. Ann,-78.34321715,18.34192629
Breezes Runaway Bay,P.O. Box 58 Runaway Bay,Runaway Bay,St. Ann,-78.34209612,18.27641665
Carousel Villa,"Mary Sonly Crescent, Cardiff",Runaway Bay,St. Ann,-78.33831664,18.3143731
Castle Peak,"Edward Avenue, Cardiff Hall",Runaway Bay,St. Ann,-78.33748042,18.31526725
Cherri Winds,Cardiff Hall,Runaway Bay,St. Ann,-78.33642355,18.30296875
Cindy Villa,"Edward Avenue, Cardiff Hall",Runaway Bay,St. Ann,-78.33278733,18.35148519
Club Caribbean,Runaway Bay P.O. Box 65,Runaway Bay,St. Ann,-78.21009537,18.20706617
Coral Cape,,Runaway Bay,St. Ann,-78.07572403,18.45017642
Descansada,Cardiff Hall,Runaway Bay,St. Ann,-78.05719092,18.44892755
Encore,"Dubloon Hill, Cardiff Hall",Runaway Bay,St. Ann,-78.04089786,18.19600799
Eslyn Villa,"Edward Avenue, Cardiff Hall",Runaway Bay,St. Ann,-78.02790477,18.16773126
Fairway Villa,,Runaway Bay,St. Ann,-78.00747628,18.45916132
Go Blue,Cardiff Hall,Runaway Bay,St. Ann,-77.92867191,18.48795664
Guango,"Cardiff Hall, P.O. Box 1",Runaway Bay,St. Ann,-77.92582968,18.47934678
Heart Runaway Bay,"8 Ricketts Ave, P.O. Box 98",Runaway Bay,St. Ann,-77.92295084,18.48203305
Hedonism 3,P.O. Box 250 Runaway Bay,Runaway BAy,St. Ann,-77.92221369,18.47695465
Idle Hours,"c/o 35 Half way tree rd, Kgn",Runaway Bay,St. Ann,-77.88037147,18.51943073
Kingsville Villa,"Edward Avenue, Cardiff Hall",Runaway Bay,St. Ann,-77.86415921,18.51876734
La Alba Villa,Cardiff Hall,Runaway Bay,St. Ann,-77.86230822,18.51869781
Man Alli,"Palmetto Terrace, Cardiff Hal",Runaway Bay,St. Ann,-77.8119906,18.52103254
Par Villa,Cardiff Hall,Runaway Bay,St. Ann,-77.52969422,18.48483272
Peppers,Cardiff Hall,Runaway Bay,St. Ann,-77.52495217,18.04394467
Pimento Villa,"Dubloon Rd, P.O Box 81 Cardif",Runaway Bay,St. Ann,-77.50069578,18.03633233
Rambling Rose,"Edward Avenue, Cardiff Hall",Runaway Bay,St. Ann,-77.39466447,18.44955112
Salem Guest House,"Salem, Runaway Bay P.O.",Runaway Bay,St. Ann,-77.32137987,"18.457244399,"
San Piper Villa,"Edward Avenue, Cardiff Hall",Runaway Bay,St. Ann,-77.3173856,18.46647378
Siesta,Main Street,Runaway Bay,St. Ann,-77.14320963,18.42051189
Silver Creek Resort,"Cardiff Hall, P.O. Box 227",Runaway Bay,St. Ann,-77.1390321,18.41699127
Spanish Cove,P.O. Box 322,Runaway Bay,St. Ann,-77.1076652,18.40434937
Sunflower Villas,"Salem, P.O. Box 150",Runaway Bay,St. Ann,-77.10247526,18.39910437
Tamarind Tree Resort,P.O. Box 325 Runaway BAy St.,Runaway Bay,St. Ann,-77.09529012,18.41239078
Valley High Villa,"Cardiff Hall, Runaway Bay P.O",Runaway Bay,St. Ann,-77.03935747,18.4204923
"Villa Mer ""C""","Edward Avenue,Cardiff Hall",Runaway Bay,St. Ann,-76.97858354,18.40424541
Villa Xanadu,"Edward Avenue, P.O. Box 524",Runaway Bay,St. Ann,-76.9434736,18.40363158
Whilby Resort Ltd,P.O. Box 111,Runaway Bay,St. Ann,-76.80202155,18.30652332
GoldFlower Apt.,"Salem, St. Ann",Salem,St. Ann,-77.92778977,18.49001435
Pastell Villa,"Main Street, Salem",Salem,St. Ann,-77.52725966,18.48282863
High Hope,"P.O. Box 11, Edge Hill Road",St. Ann's Bay,St. Ann,-77.91896678,18.49031418
Leisure Class Country,20 Top Road,St. Ann's Bay,St. Ann,-77.85336596,18.51580761
Bougainvillea,lot 81 Jamaica Beach,Tower Isle,St. Ann,-78.34312917,18.28496478
Bay Vista Village,,,St. Ann,-78.36321517,18.25550326
Carey Island,White River,White River,St. Ann,-78.33929629,18.29275716
Caribbean Isle Hotel,P.O. Box 119,St. Ann's Bay,St. Ann,-78.33889182,"18.297031729,"
Club Jamaica,"Main Street, P.O. Box 342",St. Ann's Bay,St. Ann,-78.19739667,18.45314008
Enchanted Gardens Hot,P.O. Box 284,St. Ann's Bay,St. Ann,-78.05087563,18.44763128
Little Pub Inn,"59 Main Street, P.O. Box 256",St. Ann's Bay,St. Ann,-77.8499363,18.51780958
Rio Blanco Village,Ocho Rios P.O.,Ocho Rios,St. Ann,-77.39085693,18.46309463
Shaw Park Beach Hotel,Ocho Rios P.O. Box 17,Ocho Rios,St. Ann,-77.15880628,18.42554983
Arizon Inn,Lot 8 Block M,Port Henderson,St. Cather,-78.36551985,"18.262900877,"
Knolford Polo Ranch,"c/o 12 Trinidad Terrace, Kgn",Riversdale,St. Cather,-77.86352293,18.51895847
Ashton Great House &,"P.O. Box 104 Luana, Black Riv",Black River,St. Elizab,-78.3653026,18.26293117
Bridge House Inn,14 Crane Road Black River P.O,Black River,St. Elizab,-78.34176084,"18.286789017,"
Invercauld Hotel,"High Street, Black River",Black River,St. Elizab,-77.87957558,18.50071383
Irie Sandz,,Black River,St. Elizab,-77.87822609,18.50094663
Port of Call,136 Crane Road,Black River,St. Elizab,-77.41046728,18.45967765
Siwind Guest House,"Frenchman's District, Treasur",Black River,St. Elizab,-77.11074517,18.4064294
Waterloo Guest House,"44 High Street, Black River P",Black River,St. Elizab,-76.8949617,18.39286884
Windswept,Fullerswood Road,Black River,St. Elizab,-76.78596732,18.00274259
Bucaneer Villa,Calabash Bay P.A.,Calabash Bay,St. Elizab,-78.3413571,18.27815675
Four M's Cottage,Treasure Beach P.O. Box 5,Calabash Bay,St. Elizab,-77.96069611,18.44737762
Rainbow Tree,Bully's Bay District,Calabash Bay,St. Elizab,-77.39470769,18.45238503
Sunset Beach Resort,"Calabash Bay, Calabash P.A.",Calabash Bay,St. Elizab,-77.09980753,18.40807983
Villa Caprice Guest H,,Calabash Bay,St. Elizab,-77.01503981,18.4097791
Folichon Guest House,Calabash Bay P.A.,Frenchman,St. Elizab,-77.96720605,18.08999662
Shakespear's Guest Ho,Calabash Bay P.A.,Frenchman,St. Elizab,-77.1590858,18.42571331
Cocquina & Blue Marli,"Treasure Beach, P.O Box 5",Great Bay,St. Elizab,-78.11249307,18.23736033
Ital Rest,Calabash Bay P.A.,Great Bay,St. Elizab,-77.87691186,18.50322745
Comfort Villa,Junction P.O.,Junction,St. Elizab,-78.07761468,18.45056937
Chariots Guest House,Leeds P.A.,Leeds,St. Elizab,-78.33685234,18.30727549
Apple Valley Great Ho,Magotty P.O. St. Elizabeth,Magotty,St. Elizab,-78.36565054,18.26389306
Crescent Moon Villa,Parottee Bay Rd.,Parotte Bay,St. Elizab,-78.0609041,18.44764118
Parottee Beach Resort,Black River P.O. Box 96,Parottee Beach,St. Elizab,-77.52778548,18.48437186
Dan Bar Guest House,Trevmar Park Santa Cruz P.O.,Santa Cruz,St. Elizab,-78.05885492,18.44733491
San Pedro,Gail's Supermarket,Southfield,St. Elizab,-77.31906708,18.45279055
Seaview Villa,"Seaview District, Southfield",Southfield,St. Elizab,-77.1630286,18.42680176
Golden Sands Guest Ho,Frenchman's District,Treasure Beach,St. Elizab,-77.92809027,18.48033824
Jake's Village,Jake's Restaraunt & Guest Hou,Treasure Beach,St. Elizab,-77.87456894,18.5040674
Lyric,Calabash Bay P.O.,Treasure Beach,St. Elizab,-77.83829364,17.96430916
May Day Guest House,Calabash Bay Road,Treasure Beach,St. Elizab,-77.75401341,17.88384423
Seaswell,Great Bay,Treasure Beach,St. Elizab,-77.1653059,18.4304913
Treasure Beach Hotel,P.O. Box 5 Black River,Treasure Beach,St. Elizab,-77.05430637,"18.402445676,"
Treasure Cot,Calabash Bay Road,Treasure Beach,St. Elizab,-77.05116667,18.40649554
Anchorage Villa,"P.O. Box 590, Montego Bay P.O",Belmont,St. James,-78.36571876,18.26031686
Anchor Listing,"Content District, P.O. 115, R",Content District,St. James,-78.36637839,18.26494781
Garden Cottage,"81 Ediburgh Avenue, P.O. Box",Coral Gardens,St. James,-77.94212288,18.44221706
Northern Lights,136 Melrose Terrace,Coral Gardens,St. James,-77.53516594,18.47816436
Sea Shell Inn,"Mable Owen Drive, White Sands",Doctors Cave,St. James,-77.16931056,18.42633701
Peeny Wally,"Silver Sands Estate, P.O. Box",Duncans,St. James,-77.52630419,18.48356301
All Seasons Beach Res,"Barrett  Hall, Greenwood, Lit",Greenwood,St. James,-78.36659499,18.26356336
Royal Reef Hotel,Lot 99 P.O. Box 10 Greenwood,Greenwood,St. James,-77.32268215,18.45837565
Blue Horizon,Lot 388 Fielding Avenue,Ironshore,St. James,-78.34626865,18.2746167
Burlingame Villa,251 Ferguson Avenue,Ironshore,St. James,-78.34063004,18.28967088
Caesar's Villa,,Ironshore,St. James,-78.34009581,18.28716269
Carib Sands Villa,P.O. Box 167,Ironshore,St. James,-78.33917497,18.29546856
Carib Vista,337 Hartfield South,Ironshore,St. James,-78.33911899,"18.294293819,"
Caribbean Fairways,35 Springfarm Rd. White Sands,Ironshore,St. James,-78.33889945,18.29041084
Casa Cerafa,"233 Bratton Rd, Coral Gardens",Ironshore,St. James,-78.33805385,18.30013057
East of Eden Villa,"295 Charles Avenue,",Ironshore,St. James,-78.05408151,"18.444864716,"
El Nido,"246 Bratton Road, P.O. Box 11",Ironshore,St. James,-78.05310368,18.44827781
Executive Place,"296 Charles Avenue, Coral Gar",Ironshore,St. James,-78.01436593,18.45288563
Fair Way Manor,"38 Spring Farm Road, P.O. Box",Ironshore,St. James,-78.01158528,18.45609951
Fairway House,"Lot 1050 Irving Drive, Coral",Ironshore,St. James,-78.01002279,"18.455750445,"
Fi - Mi - Tattoo,Fairway Avenue,Ironshore,St. James,-77.97960716,18.10521042
Fort Leaford Villa,"355 Sugar Mill Road, Coral Ga",Ironshore,St. James,-77.96553068,18.44902829
Gemini Villa,459 Donchester Drive,Ironshore,St. James,-77.9414145,18.45911903
Graceville,"299 Charles Avenue, White San",Ironshore,St. James,-77.9271554,18.48924415
Greenway Contentment,"197 Patterson Avenue, Coral G",Ironshore,St. James,-77.9265845,18.49054623
Heaven's Gate,"390 Fielding Avenue, P.O. Box",Ironshore,St. James,-77.92252582,18.47765221
Hi Scud,24 Hart Field North,Ironshore,St. James,-77.92052632,"18.469644467,"
Hilldean,485 Dorchester Drive,Ironshore,St. James,-77.91465869,18.47573763
Holiday Retreat,"259 Ferguson Avenue, Coral Ga",Ironshore,St. James,-77.91182587,18.50697056
Hope Ville,258 Ferguson Avenue,Ironshore,St. James,-77.90839633,18.47122375
Island Breeze Villa,414 Fielding Avenue,Ironshore,St. James,-77.87737413,18.50528215
Jay Hawk,306 Charles Avenue,Ironshore,St. James,-77.87011432,18.49977484
Kent House,"Flower Avenue, Torado Heights",Ironshore,St. James,-77.86587777,18.5071063
Kenwood Villa,469 Dorchester Avenue,Ironshore,St. James,-77.86578808,18.51958276
Key Largo,256 Sugar Mill Road,Ironshore,St. James,-77.86500269,18.51640134
Kingsville,"152 Morgan Road, Coral Garden",Ironshore,St. James,-77.86431301,18.51813845
La Casa Tamica,139 Patterson Avenue,Ironshore,St. James,-77.86165827,18.51886873
Lady Wood,"Springfarm, P.O. Box 80",Ironshore,St. James,-77.85663179,18.51585805
Lincoln Liberty Manor,569 Lincoln Place,Ironshore,St. James,-77.85171245,"18.516557751,"
Lochton Hill,"248 Bratton Road, Coral Garde",Ironshore,St. James,-77.8457534,18.52366445
Mahogany View Villa,"70 Mahogany Way, Springfarm",Ironshore,St. James,-77.81237686,18.52276119
Marstan,"150 Torado Drive, Torado Heig",Ironshore,St. James,-77.75883451,17.87620884
Megelia I,"1044 Irving Drive, P.O. Box 1",Ironshore,St. James,-77.74238453,18.50302909
Megelia III,"3 Queens Drive, P.O. Box 174",Ironshore,St. James,-77.74055389,17.86984467
Melody Villa,"231 Bratton Road, Coral Garde",Ironshore,St. James,-77.74016695,17.88851687
No Problem,1045 Irving Drive,Ironshore,St. James,-77.53541501,18.48645511
Ocean Crest Villas,"358 Montrose Cresent, Coral G",Ironshore,St. James,-77.53504349,18.48481653
Osborne Villa,217 Patterson Avenue,Ironshore,St. James,-77.53100985,18.48414509
Oscar's Villa,"383 Hudson Avenue, Coral Gard",Ironshore,St. James,-77.53052093,18.48273168
Paradise Villa,"172 Patterson Avenue, P.O. Bo",Ironshore,St. James,-77.52824025,18.48229494
Pink Hibiscus,237 Bratton Road,Ironshore,St. James,-77.49672256,18.47356261
PI's Haven,"325 Charles Avenue, Coral Gar",Ironshore,St. James,-77.48758842,18.15942191
Sea Green,1039 Irving Drive,Ironshore,St. James,-77.18337084,18.42826673
Sherville,Sugar Mill Road,Ironshore,St. James,-77.15849983,"18.424289737,"
Sirocco Villa,Fielding Avenue,Ironshore,St. James,-77.11148036,18.40410757
Skylark Villa,"Pimento Way, Spring Farm",Ironshore,St. James,-77.11044798,18.40383358
Stout Grange,31 Hartfield North,Ironshore,St. James,-77.10572218,18.41326633
The Atrium,1084 Morgan Rd. Ironshore Mon,Ironshore,St. JAmes,-77.08581541,18.41065782
Trillium Villa,"289 Ferguson Avenue, Coral Ga",Ironshore,St. James,-77.04332194,"18.4224945,0<"
Tropical Holiday Vill,"401 Fielding Avenue, P.O. Box",Ironshore,St. James,-77.04275824,18.42202777
Villa Bahia,"447 Dorchester Drive, P.O. Bo",Ironshore,St. James,-77.03121992,18.41741052
Villa Combolo,245 Bratton Road,Ironshore,St. James,-77.01398026,18.40649211
Villa Deja Vu,"448 Lambert Avenue, P.O. Box",Ironshore,St. James,-76.98648168,18.40616848
Villa Mawr,"8 Cottonwood Way, Springfarm",Ironshore,St. James,-76.97982747,18.40417461
Villa Olga,"9 Churchill Place, Coral Gard",Ironshore,St. James,-76.96228836,18.40037809
Villa Robin's Nest,"14 Churchill Place, Coral Gar",Ironshore,St. James,-76.95230557,"18.356880484,"
Villa Swarm,"260 Ferguson Avenue, P.O. Box",Ironshore,St. James,-76.95228753,18.39988264
Jamaica Rose,427 Ferguson Avenue,"Ironshore, Montego",St. James,-77.8720411,18.50443543
Kenwood Ville,76 Dover Avenue,"Ironshore, Montego",St. James,-77.86534957,18.51812169
Richmond Hill,"Union Street, P.O. Box 362",Montegio Bay,St. James,-77.39215372,18.46080718
Appleton Castle,25 Appleton Hall,Montego Bay,St. James,-78.36553991,18.2719155
Ashantis Inn,50 Thompson Street,Montego Bay,St. James,-78.36540993,18.25706635
Belvedere Beach Hotel,33 Gloucester Ave. Montego BA,Montego Bay,St. James,-78.35820798,18.26965778
Big Apple Accomodatio,Pimento Way,Montego Bay,St. James,-78.35643235,18.24606213
Brandon Hill Guest Ho,28 Peter Pan Ave. P.O. Box 18,Montego Bay,St. James,-78.34278745,18.28541448
Buccaneer Beach Hote,7 Kent Ave. Montego Bay,Montego Bay,St. JAmes,-78.3410964,18.28831275
Caribic House,"69 Gloucester Avenue, White S",Montego Bay,St. James,-78.33852601,18.29157893
Casa Blanca Beach Clu,Gloucester Ave. P.O. Box 469,Montego Bay,St. James,-78.33814322,18.31192669
Comfort Guest House,Lot 55 Jarrett Terrace P.O. B,Montego Bay,St. James,-78.07797786,18.45022859
Coral Cliff Hotel,165 Gloucester Ave. P.O. Box,Montego Bay,St. James,-78.07552078,18.44924496
Corton House,"1 Cottonwood Way, Rose Hall",Montego Bay,St. James,-78.06240387,18.44886499
Coyaba Beach Resort,"Mahoe Bay, Little River P.O.",Montego Bay,St. James,-78.06098517,"18.445386007,"
Doctors Cave Beach,Gloucester Ave P.O. Box 94,Montego Bay,St. James,-78.05595374,18.44739184
Gloucestershire Hotel,Gloucester Ave P.O. Box 86,Montego Bay,St. James,-77.92867598,18.48188096
Green Reef Villa,"White Sands Beach, Mahoe Bay",Montego Bay,St. James,-77.926607,18.48770029
Guest House,29 Gloucester Avenue,Montego Bay,St. James,-77.92547761,18.48219126
Half Moon,"Rose Hall, P.O. Box 80",Montego Bay,St. James,-77.92410487,18.4737547
Harbour Way Hotel,11 Harbour Street,Montego Bay,St. James,-77.92388153,18.47130201
Hillside Villa,Round Hill Estate P.O. Box 64,Montego Bay,St. James,-77.91447972,18.48308428
Hotel Gloriana,2 Sunset Blvd,Montego Bay,St. James,-77.90339778,18.51052435
Hotel Inn Sunspree Re,Rose Hall P.O. Box 480,Montego Bay,St. James,-77.90273783,18.48232657
Hotel Montego,2 Federal Ave P.O. Box 74,Montego Bay,St. James,-77.90217438,18.25461693
Jack Tar Village (All,2Gloucester Ave P.O. Box 114,Montego Bay,St. James,-77.87597557,"18.505698512,"
Jamaica Grandiosa Res,3 Ramparts Close P.O. Box 139,Montego Bay,St. James,-77.87399176,18.50531824
La Casa de Familia,"292 Fairview Avenue, Torado H",Montego Bay,St. James,-77.86225356,18.51452555
La Mirage,6 Queen Drive,Montego Bay,St. James,-77.85915053,18.51714897
Leeward Villa,"Rose Hall Rd., Mahoe bay",Montego Bay,St. James,-77.8551635,18.5178384
Linkage Guest House,32 Church Street,Montego Bay,St. James,-77.85096202,18.02838317
Mahogany Hall,Unity Hall,Montego Bay,St. James,-77.83364582,18.52266688
Manevarose Guest Hous,"17 Claude Clarke Avenue, Whit",Montego Bay,St. James,-77.7785173,17.89178548
Mango Walk Villas,5 Mango Walk,Montego Bay,St. James,-77.76326016,17.88598501
Matt's Villa,"1042 Irving Drive, Ironshore",Montego Bay,St. James,-77.75612598,17.87526952
Montego Bay Club Reso,Gloucester Ave. White Sands P,Montego Bay,St. James,-77.60830814,18.48263621
Ocean View Guest Hous,"26 Sunset Boulevard, P.O. Box",Montego Bay,St. James,-77.53282927,18.48148823
Ora Vista Guest House,"Richmond Hill Road, P.O. Box",Montego Bay,St. James,-77.53239695,18.48223584
Orange River Lodge Lt,34 Fort Street P.O. Box 822,Montego Bay,St. James,-77.53239594,18.48261577
Palm Bay Guest House,"Lot 14 Bogue Estate, Whitesan",Montego Bay,St. James,-77.5300585,18.48042529
Palm View Guest House,22 Delisser Drive,Montego Bay,St. James,-77.52970811,18.48363164
R.T. Sundance Resort,1 kent Ave P.O. Box 467,Montego Bay,St. James,-77.39614973,18.45815527
Ramparts Inn Hotel,5 Ramparts Close P.O. Box 971,Montego Bay,St. James,-77.39433511,18.45465108
Reading Reef Club,"Reading P.O., P.O. Box 971",Montego Bay,St. James,-77.39387275,18.451004
Relax Resort,26 Hobbs Ave,Montego Bay,St. James,-77.39334111,18.45388542
Ridge Way Guest House,"34 Queen's Drive, P.O. Box 12",Montego Bay,St. James,-77.39211738,18.46149398
Rolexcia Guest House,88 Catherine Mount,Montego Bay,St. James,-77.33416803,18.46011624
Royal Court,13 Sewell Ave P.O. Box 195,Montego Bay,St. James,-77.32419432,18.46410799
Runnymede South Villa,"Springfarm, Rose Hall",Montego Bay,St. James,-77.32214911,18.45525728
Sahara De La Mer,"Pimento Cove, Unity Hall",Montego Bay,St. James,-77.32184395,"18.464869898,"
Sandals Inn (All Incl,Kent Ave P.O. Box 412,Montego Bay,St. James,-77.31409796,18.45148959
Sandals Montego Bay (,Kent Ave P.O. Box 100,Montego Bay,St. James,-77.31404947,18.44816636
Sandals Royal Jamaica,P.O. 167 Montego Bay,Montego Bay,St. James,-77.31309527,18.45132952
Sea Castle Resort,Rose Hall P.O. Box 55,Montego Bay,st. James,-77.30062706,18.46867124
Sea Esta,Mahoe Bay,Montego Bay,St. James,-77.20178027,18.42221599
Silent Waters Villa,River Lot Road,Montego Bay,St. James,-77.14163223,18.37077641
Sunset Beach Resort,Montego Bay Freeport,Montego Bay,St. James,-77.09959949,18.41221059
Verney Tropical Resor,3 Leader Ave P.O. Box 18,Montego Bay,St. James,-77.03513539,18.41931289
View Guest House,"56 Jarrett Terrace, P.O. Box",Montego Bay,St. James,-77.03279619,18.41709476
Wexford Hotel,39 Gloucester Ave P.O. Box 10,Montego BAy,St. James,-76.80793949,18.01630184
Winged Victory Hotel,5 Queen's Drive,Montego Bay,St. James,-76.78214361,18.0033188
Wyndham Rose Hall,Rose Hall P.O. Box 999,Montego Bay,St. James,-76.78163994,18.00187678
Ritz Carlton Rose Hal,"1 Ritz Carlton Drive, Rose Ha",MontegoBAy,St. James,-77.34321185,18.4632032
Blue Harbour,Sewell Ave,P.O. Box 212 Monte,St. James,-78.34896502,18.27608553
Casa Gabriel,"Content Reading, P.O. Box 23",Reading,St. James,-78.33781042,18.30109419
Destiny Villa,"Great River Private Estate, R",Reading,St. James,-78.05664913,18.4486385
Pharos Villa,P.O. Box 26,Reading,St. James,-77.50477694,"18.045927721,"
Sea Island Villa,"Great River Estate, Reading P",Reading,St. James,-77.17197971,18.42584667
Datura Villa,Long Hill Road P.O. Box 227,Readings P.O.,St. James,-78.05856471,18.44843607
Hotel Rio Bueno,"Gallery Joe James, Rio Bueno",Rio Bueno,St. James,-77.90026734,18.46875192
Abacus Villa,"Spring Farm, P.O. Box 463",Rose Hall,St. James,-78.36742194,18.27070585
Bien Venue,"Mahogany Way, Spring Farm",Rose Hall,St. James,-78.35652102,18.27298608
Cotton Wood Villa,"Cotton Wood Drive, P.O. Box 8",Rose Hall,St. James,-78.06235544,18.44956896
Windsong Villa,Springfarm Drive,Rose Hall,St. James,-76.7867455,"18.002693249,"
Dunn's Villa,"Rosehall, Little River P.O.",Rosehall,St. James,-78.0545671,18.44493311
Jamburu,"Spring Farm, Little River P.O",Spring Farm,St. James,-77.87107756,18.49768053
Sunning Hill,"Spring Farm Drive, P.O. Box 2",Spring Farm,St. James,-77.10237504,"18.411245321,"
Sea Breeze Inn,"20 Peters Avenue, Reading P.O",Spring Garden,St. James,-77.31111498,18.46622628
High View,Ash Hill Avenue,Torado Heights,St. James,-77.91795917,"18.478179379,"
Noble House,Unity Hall Main Road,Unity Hall,St. James,-77.53534912,18.48123245
Serenity Villa,Unity Hall Main Road,Unity Hall,St. James,-77.16291122,18.4300211
The Birches,Unity Hall Main Road,Unity Hall,St. James,-77.08528643,18.39567193
Tranquility Villa,"Unity Hall Main Road, Reading",Unity Hall,St. James,-77.05883928,18.41408821
South Sea View Guest,69 Southsea Park,White house,St. James,-77.10786258,18.40672115
Kingsway Villa,61 Kent Avenue,White Sands,St. James,-77.86406055,18.51615377
Swanlea,18 Sunset Boulevard,White Sands,St. James,-77.09857057,18.41256875
Villa Nia,5 Kent Avenue,White Sands,St. James,-76.97033626,18.40645151
Casa De Paradise,8 Queens Drive,,St. James,-78.33792582,"18.299136434,"
Club Calypso,P.O. Box 33,,St. James,-78.23919753,18.42774456
Fantasy Resort,Gloucester Avenue P.O Box 161,,St. James,-77.98978151,18.44795745
Montego Bay Racquet C,"Sewell Avenue, P.O. Box 245",,St. James,-77.60685603,18.48329193
Beaches Boscobel Hote,Boscobel St. Mary C/o 12 Traf,Boscobel,St. Mary,-78.36049645,18.25293448
Blue Haven Village,Boscobel P.O.,Boscobel,St. Mary,-78.34739972,18.2762616
Rica Vista Guest Hous,"c/o 9 Skibo Avenue, Kgn. 10",Boscobel,St. Mary,-77.39299694,18.44835035
Sea Chalets Villas 1-,,Boscobel,St. Mary,-77.22783931,18.44731531
Val Halla Villa,38 Rio Nuevo Circle,Boscobel,St. Mary,-77.04063931,18.41800668
Xayamaca,Boscobel P.O.,Boscobel,St. Mary,-76.77668013,18.02538565
Coral Cove 1 & 2,Fortland Road,Discovery Bay,St. Mary,-78.07495002,18.45065556
Trade Winds Resort,"c/o 24 Kew Road, Kgn 10","Galina, Port Maria",St. Mary,-77.05940431,18.41487592
Far View,Gibraltar,Oracabessa,St. Mary,-77.98961897,"18.44922664,0"
Golden Clouds,P.O. Box 332,Oracabessa,St. Mary,-77.92836328,18.48910812
Golden Eye,P.O. Box 118,Oracabessa,St. Mary,-77.92830561,18.48537242
Golden Seas Hotel,P.O. Box 1 Oracabessa,Oracabessa,St. Mary,-77.92803653,18.48864127
Loveland Villa,Oracabessa P.O.,Oracabessa,St. Mary,-77.8424315,18.01919858
Rock Edge Villa,,Oracabessa,St. Mary,-77.34043394,18.4631472
Tamarind Great House,"Cresent Estate, Oracabessa P.",Oracabessa,St. Mary,-77.09538206,18.41329632
Blue Harbour,P.O. Box 50,Port Maria,St. Mary,-78.35402089,18.24546573
Casa Maria,Port Maria P.O. Box 10,Port Maria,St. Mary,-78.33769338,18.30591441
Eight Rivers,Prospect Plantation P.O. Box,Prospect,St. Mary,-78.05357011,18.44371705
Emerald Seas,White River,Prospect,St. Mary,-78.05148985,18.44765013
Frangipangi Villa,"P.O. Box 8, Ocho Rios P.O.",Prospect,St. Mary,-77.94652653,18.44542372
Somewhere,"Prospect Plantation, P.O. Box",Prospect,St. Mary,-77.10801513,18.40742983
Villa Viento,"P.O. Box 44, Tower Isle",Prospect,St. Mary,-76.94414614,18.40998066
Wag Water,"Prospect Plantation, P.O. Box",Prospect,St. Mary,-76.90011801,18.4080239
Hill Sea View,Tower Isle P.O. Box 163,Rio Nuevo,St. Mary,-77.91607807,"18.4942302,0<"
Sonrise Beach Retreat,Robins Bay P.A.,Robin's Bay,St. Mary,-77.10789197,18.40581737
Cool Green,,Tower Isle,St. Mary,-78.0762592,18.4484508
Coral Cay Villas,P.O. Box 418,Tower Isle,St. Mary,-78.07553475,18.44911201
Edgewater Villa,,Tower Isle,St. Mary,-78.05358435,18.4483939
Four Palms Villa,,Tower Isle,St. Mary,-77.94943764,18.44591078
Gentle Winds,P.O. Box 108,Tower Isle,St. Mary,-77.94021853,18.45945518
Las Brisas,Jamaica Beach,Tower Isle,St. Mary,-77.85651025,18.52277703
Mikee Jack,10 Crest Terrace,Tower Isle,St. Mary,-77.68676052,18.48397636
Sea Castle Villa,Jamaica Beach,Tower Isle,St. Mary,-77.24970076,"17.963909339,"
Wind - Jammer,Tower Isle,Tower Isle,St. Mary,-76.79001548,18.00973693
Reef Point Retreat,P.O. Box 44,,St. Mary,-77.39361923,18.44973881
Bath Fountain Hotel,Bath P.O.,Beacon Hill,St. Thomas,-78.36368841,18.27437372
Morant Bay Villas,1Wharf Rd. Morant Bay P.O.,Morant Bay,St. Thomas,-77.54117743,18.48279198
Whispering Bamboo Res,"105 Crystal Dr. Retreat, St.",Retreat,St. Thomas,-76.79484105,18.05135375
Seacrest Resort,2 Richmond Estate P.O. Box 32,Priory,St.Ann,-77.16622736,18.42946616
The People's Choice,Sligoville Road,Spanish Town,St.Catheri,-77.07855104,18.40912726
Breezes Montego Bay (,Gloucester Ave. White Sands B,Montego Bay,St.James,-78.34241385,18.28743802
Cariblue Beach Hotel,Montego Bay Box 610,Montego Bay,St.James,-78.33843792,18.2981229
Davelyn Villa,"1133 Sugar Mill Road, P.O. Bo",Montego Bay,St.James,-78.05831764,18.44667236
Gibbs Chateau,54 Jarrett Terrace,Montego Bay,St.James,-77.92965514,18.48355952
Leader GuestApts,46 Leader Ave Montego Bay,Montego Bay,St.James,-77.85541248,18.52256459
Sea Gardens,"Kent Avenue, P.O. Box 300",Montego Bay,St.James,-77.19913483,18.43415106
Vista Embassador,"Gloucester Avenue, White Sand",Montego Bay,St.James,-76.92175532,18.41358596
Grand Lido Braco ( Al,Rio Bueno,Braco,Trelawny,-77.92697098,18.49019699
Starfish Trelawny,Cooper's Pen P.O. Box 94,Cooper's Pen,Trelawny,-77.10624127,18.40768604
Akwaaba,"Silver Sands Estates, Duncans",Duncans,Trelawny,-78.36708065,18.26805314
Ayasso Villa,"169 Silver Sands Estate, P.O.",Duncans,Trelawny,-78.3649289,18.25728636
Beach Haven Villa,Lot 177 Silver Sands,Duncans,Trelawny,-78.36285335,18.25717132
Berniedene Villa,Lot 151 Silver Sands,Duncans,Trelawny,-78.35807655,18.27166854
Blue Vista,189 Silver Sands Estate,Duncans,Trelawny,-78.34623846,18.28082141
Cannon Cottages,Silver Sands,Duncans,Trelawny,-78.33965784,18.29247687
Caribbean Dreams,"Silver Sands, P.O. Box 1",Duncans,Trelawny,-78.33893402,18.29666619
Casa Espana Villa,Lot 161 Silver Sands Resort,Duncans,Trelawny,-78.33784655,18.30740415
Casurina Villa,Lot 19 Silver Sands Resort,Duncans,Trelawny,-78.33744406,18.31241956
Chase Farm Villa,"Lot 127, Silver Sands",Duncans,Trelawny,-78.33678112,18.30461252
Coral Edge,Lot 23b Silver Sands Estate,Duncans,Trelawny,-78.07457931,18.44924789
Day - O,"Silver Sands Estate, Duncans",Duncans,Trelawny,-78.05793917,18.44746859
Doctor Bird,Silver Sands Estate,Duncans,Trelawny,-78.05604605,18.44879732
Dreamin Villa,"Silver Sands Estate, P.O. Box",Duncans,Trelawny,-78.05492409,18.44679585
Ebb Tide Villa,Silver Sands Estate,Duncans,Trelawny,-78.0538952,18.44750117
Emerald by the Sea,"Silver Sands Estate, P.O. Box",Duncans,Trelawny,-78.05268888,18.44784217
Endless Summer,Silver Sands Estate,Duncans,Trelawny,-78.03323699,18.17560176
Gwynmarvon Villa,"Silver Sands Estate, P.O. Box",Duncans,Trelawny,-77.92503288,"18.482553013,"
Hang Time Villa,Lot 236 Silver Sands Estate,Duncans,Trelawny,-77.92396149,18.4753671
Hastings Place,"Silver Sands Estate, P.O. Box",Duncans,Trelawny,-77.92331707,18.47364408
Honey Comb,Silver Sands Estate,Duncans,Trelawny,-77.91144847,18.46007418
Horizon Villa,"232 Silver Sands Estate, P.O.",Duncans,Trelawny,-77.90504511,18.46561739
Idle Hours,Lot 4 Silver Sands Estate,Duncans,Trelawny,-77.88104722,18.5131609
Jamma Home Villa,Silver Sands,Duncans,Trelawny,-77.87083899,18.49779528
Je Suis Content,"Silver Sands Estate, P.O. Box",Duncans,Trelawny,-77.86951607,18.50185091
Kamarr Villa,"Silver Sands Estate, P.O. Box",Duncans,Trelawny,-77.86829869,"18.50177344,0"
Kelso Villa,Silver Sands Estate,Duncans,Trelawny,-77.86643253,18.52022559
Kling Kling Villa,"152 Silver Sands Resort, P.O.",Duncans,Trelawny,-77.86393015,18.51617383
La Chez Cherie,"Silver Sands Estate, P.O Box",Duncans,Trelawny,-77.86094837,18.5168895
La Hacienda,Silversands Estate,Duncans,Trelawny,-77.8607716,18.51918303
Luck Now,"156 Silver Sands Estate, P.O.",Duncans,Trelawny,-77.84013514,18.51572716
Memories,"Lot 12 Silver Sands, P.O. Box",Duncans,Trelawny,-77.73729947,17.89055091
Miss P's Place,"Silver Sands Estate, P.O. Box",Duncans,Trelawny,-77.61435882,18.48710219
Nutshell Villa,"Silver Sands Estate, P.O. Box",Duncans,Trelawny,-77.53505236,18.48367987
Oh Boy,"Silver Sands Estate, P.O. Box",Duncans,Trelawny,-77.53271551,18.48377096
Orchid House,"Silver Sands, Duncans P.O.",Duncans,Trelawny,-77.5311615,18.47967862
Paradise Guest House,"Stewart Castle, P.O. Box 66",Duncans,Trelawny,-77.52934823,18.48476224
Pot of Gold,"3 Silver Sands Estate, P.O. B",Duncans,Trelawny,-77.40136825,18.45951364
Quadrille Villa,Quadrille Villa,Duncans,Trelawny,-77.39937004,18.46270731
Queen's Cottage,"Silver Sands, Duncans P.O.",Duncans,Trelawny,-77.39710796,18.45848239
Roots Villa,"49a Silver Sands Estate, P.O.",Duncans,Trelawny,-77.32580483,18.46309383
Rum Jetty,"Silver Sands Estate, Duncans",Duncans,Trelawny,-77.32262192,18.45684592
Salt Ash Villa,"149 Silver Sands Estate, P.O.",Duncans,Trelawny,-77.3207575,18.45402484
Santa Margharita,"188 Silver Sands, P.O. Box 1",Duncans,Trelawny,-77.31270256,18.46703255
Sea Gull Villa,"164 Silver Sands Estate, P.O",Duncans,Trelawny,-77.17226202,18.42737437
Sea Spice Villa,"15 Silver Sands Estate, P.O.",Duncans,Trelawny,-77.16903421,18.43419853
Sea Spray,"6 Silver Sands Estate, P.O. B",Duncans,Trelawny,-77.16758972,18.43122605
Sea WYF,"15 Silver Sands Estate, P.O.",Duncans,Trelawny,-77.16651727,18.42575213
Silver Pointe Villa,"Silver Sands Estate, P.O. Box",Duncans,Trelawny,-77.1147204,18.40469738
Silver Sands Motel,"Silver Sands, P.O. Box 1",Duncans,Trelawny,-77.11209057,18.40353352
Summer Time Villa,"Silver Sands Estate, P.O. Box",Duncans,Trelawny,-77.10397516,18.41105213
Sunset Villa I,"Silver Sands Estate, P.O. Box",Duncans,Trelawny,-77.09912715,18.40538
Tia Maria Villa,"136 Silver Sands Estate, P.O.",Duncans,Trelawny,-77.07226266,18.41486483
Valhalla Villa,"168 Silver Sands Estate, P.O.",Duncans,Trelawny,-77.04007651,18.42115245
Wedwyn Villa,Silver Sands Estate,Duncans,Trelawny,-76.8902057,18.37031049
Wind Jammer Villa,"Lot 160 Silver Sands Estate,",Duncans,Trelawny,-76.78837131,18.02801244
Sunset Villa II,Duncans Bay Complex,Duncans Bay,Trelawny,-77.09889042,18.41247053
Falmouth Resort,"22 Newton Street, Falmouth P.",Falmouth,Trelawny,-77.99032747,18.4491545
FDR Pebbles,Cooper Pen P.O. Box 1933,Falmouth,Trelawny,-77.98764638,18.44847033
Fisherman's Inn (Rose,"Falmouth P.O. , Trelawny",Falmouth,Trelawny,-77.97122135,18.09306819
Good Hope,"Falmouth, P.O. Box 50",Falmouth,Trelawny,-77.92717799,18.48158521
Sea Breeze Villa,"P.O. Box 1, Duncans P.O.",Silver Sands,Trelawny,-77.30808247,18.46619287
Sea Scape Villa,"Lot 243 Silver Sands, Duncans",Silver Sands,Trelawny,-77.1696525,18.43568439
Hermitage,"P.O. Box 5, Mullion Cove",Bluefields,Westmoreland,-77.92176922,"18.489465651,"
Milestone Villa,P.O. Box 2809,Bluefields,Westmoreland,-77.67401654,"17.886041406,"
Mullion Cove,"P.O. Box 5, Mullion Cove",Bluefields,Westmoreland,-77.54095791,18.48154521
San Michelle,Bluefields P.O. Box 5,Bluefields,Westmoreland,-77.31915623,"18.464576288,"
Shafton Guest House,"P.O. Box 19, Bluefields P.O.",Bluefields,Westmoreland,-77.16001559,18.42439975
Chris Domar Cottage,,Green Island,Westmoreland,-78.33638747,18.30406817
Coconut Cottages,,Little Bay,Westmoreland,-78.16695298,18.45311372
Lost Beach Resort,"Broughton Rd, Hope Wharf, Wes",Little London,Westmoreland,-77.84377103,18.02040182
Addis Kokeb,,Negril,Westmoreland,-78.36734104,18.26838231
Alfred Ocean Place,Norman Manley Blvd. P.O. Box,Negril,Westmoreland,-78.36689237,18.27164991
Banana Shout,"West End, P.O. Box 4",Negril,Westmoreland,-78.36454946,18.25585266
Bar-B-Barn,N.M. Boulevard P.O. Box 42 Ne,Negril,Westmoreland,-78.36430699,18.25705105
Beach House Villa,Westlands Mountain Road,Negril,Westmoreland,-78.3614932,18.2755151
Beachcomber Hotel,"N.M. Boulevard, P.O. Box 98,",Negril,Westmoreland,-78.36083026,18.25181298
Beaches Negril (All I,N.M. Boulevard P.O. Box 915 N,Negril,Westmoreland,-78.3597364,18.24678127
Beaches Sandy Bay,N.M. Blvd P.O. Box 105 Negril,Negril,Westmoreland,-78.35908687,18.24605086
Bill's Paradise,Norman Manley Blvd.,Negril,Westmoreland,-78.3562376,18.27804344
Birchrunville,West End Road,Negril,Westmoreland,-78.35599678,18.24240082
BT Resort,Norman Manley Boulevard,Negril,Westmoreland,-78.34174591,18.28708678
Bungalo Hotel,N.M. Boulevard P.O. Box 340 N,Negril,Westmoreland,-78.34078156,18.28850019
Cast Away,West End Road,Negril,Westmoreland,-78.33748197,18.30433759
Catch A Falling Star,"West End Road, P.O. Box 22",Negril,Westmoreland,-78.33741507,18.30234415
Charela Inn,"N.M. Boulevard P.O. Box 33, N",Negril,Westmoreland,-78.33706691,18.31799371
Chuckles Resort,Plaza de Negril,Negril,Westmoreland,-78.33382205,18.34951989
Citronella,"Lighthouse Road, West End",Negril,Westmoreland,-78.29714479,"18.388474229,"
Claire Asanti,Westland Road,Negril,Westmoreland,-78.27669224,18.38696019
Classique Cottage,Norman Manley Boulevard,Negril,Westmoreland,-78.27395928,18.38810441
Coco La Palm,"N.M. Boulevard, Negril P.O.",Negril,Westmoreland,-78.18861149,18.45244462
Coral Seas Beach (All,N.M. Boulevard P.O. Box 91,Negril,Westmoreland,-78.06287545,18.44846028
Country Country,"Norman Manley Blvd, P.O. Box",Negril,Westmoreland,-78.06195469,"18.454089314,"
Couples Negril (All I,N.M. Boulevard P.O. Box 35,Negril,Westmoreland,-78.06145987,18.44588944
Croton Grove,West End Road,Negril,Westmoreland,-78.0601534,18.4479313
Crystal Waters,"Norman Manley Blvd, P.O. Box",Negril,Westmoreland,-78.0595886,18.44746254
Daniel Village Resort,"N.M. Boulevard, Negril P.O. B",Negril,Westmoreland,-78.05866701,"18.448025117,"
Delrose Villa,,Negril,Westmoreland,-78.05741614,18.44759313
Devine Destiny,"West End, Negril P.O. Box 117",Negril,Westmoreland,-78.05653916,18.44744441
Drumville Cove,"West End Road, P.O. Negril P.",Negril,Westmoreland,-78.05461022,18.44836142
Eva's Little's Africa,,Negril,Westmoreland,-78.02603633,18.159
Firefly Cottages,P.O. Box 54,Negril,Westmoreland,-77.97875799,18.45227933
Foote Prints on the S,N.M. Boulevard,Negril,Westmoreland,-77.96585828,18.08872108
Freedom Villa,,Negril,Westmoreland,-77.94619988,18.44515641
Fun Holiday Beach Hot,Norman Manley Boulevard,Negril,Westmoreland,-77.94519245,"18.463463,0</"
Gloria's Sunset,Norman Manley Boulevard,Negril,Westmoreland,-77.92872244,18.48925325
Golden Sunset,"Norman Manley Blvd, P.O. Box",Negril,Westmoreland,-77.92793039,18.47964055
Heartbeat Cottage,"West End Road, P.O. Box 95",Negril,Westmoreland,-77.92276394,18.49321726
Hidden Paradise,P.O. Box 9 Negril P.O.,Negril,Westmoreland,-77.91945873,18.47113218
Hog Heaven,West End Rd. Negril P.O.,Negril,Westmoreland,-77.91416156,18.49157686
Home Sweet Home,"West End Road, P.O. Box 3002,",Negril,Westmoreland,-77.91179407,18.48245706
Jackie's on the Reef,"Lighthouse Road, Negril P.O.",Negril,Westmoreland,-77.87579685,18.50625963
Jamaiana,,Negril,Westmoreland,-77.87455233,18.51987815
Jamaica Tamboo,P.O. Box 6,Negril,Westmoreland,-77.87145348,18.50690125
Kuyaba Negril,"N.M. Boulevard, Negrili P.O.",Negril,Westmoreland,-77.86276134,18.51617904
L.T.U. Pub. Olympics,"P.O. Box 116, West End",Negril,Westmoreland,-77.86231245,18.51332787
La Kaisers Cafe,Norman Manley Boulevard,Negril,Westmoreland,-77.8602695,18.51511034
La Mar Resort,"West End Road, P.O. Box 52",Negril,Westmoreland,-77.85960227,18.51519823
Legends Hotel,"N.M. Boulevard, Negril P.O.",Negril,Westmoreland,-77.85394893,18.5183621
Lighthouse Park,"West End Road, P.O. Box 3",Negril,Westmoreland,-77.85290882,18.52015251
Llantrissant,"West End Road, P.O. Box 90",Negril,Westmoreland,-77.84622742,18.51821484
Lonestar Hotel & Yatc,"West End Road, P.O. Box 34",Negril,Westmoreland,-77.84545122,"18.046926419,"
Mariposa Hide Away,"Norman Manley Boulevard, P.O.",Negril,Westmoreland,-77.75888144,17.87700401
Merrils Unicy,"N.M. Boulevard, P.O. Box 75",Negril,Westmoreland,-77.7364703,"17.891014713,"
Mirage Resort,,Negril,Westmoreland,-77.6564842,18.44636071
Moonlight Villa,"West End Road, P.O. Box 2721",Negril,Westmoreland,-77.55252301,18.47644335
Moonrise Villa,"Norman Manley Blvd, P.O. Box",Negril,Westmoreland,-77.54190792,18.48009453
Native Son,"Norman Manley Blvd, P.O. Box",Negril,Westmoreland,-77.53929508,18.47836021
Negril Beach Club (Ma,N.M. Boulevard P.O. Box 7 Neg,Negril,Westmoreland,-77.53846527,18.48119267
Negril Beach Villa,Norman Manley Blvd.,Negril,Westmoreland,-77.53830446,18.48482525
Negril Cabins,"Norman Manley Boulevard, Negr",Negril,Westmoreland,-77.53802488,18.47583215
Negril Inn (All Inclu,"N.M. Boulevard, Box 59, Negri",Negril,Westmoreland,-77.53770306,18.48712467
Negril Palm Beach,"Norman Manley Boulevard, P.O.",Negril,Westmoreland,-77.53765865,18.48309772
Negril Tree House Res,"N.M. Boulevard, Negril P.O. B",Negril,Westmoreland,-77.53748161,18.48292463
Negril Yoga Centre,"Norman Manley Blvd, P.O. Box",Negril,Westmoreland,-77.53721715,18.48031702
Negril's Idle Awhile,"N.M. Boulevard, P.O. Box 2935",Negril,Westmoreland,-77.53712041,18.47778572
New Moon Cottage,West End Road,Negril,Westmoreland,-77.53684205,18.47557835
Nirvana Villa,Norman Manley Blvd,Negril,Westmoreland,-77.53610094,18.48644368
Our Past Time,"N.M. Boulevard, P.O. Box 45",Negril,Westmoreland,-77.53022883,18.48485087
P. J.'s Villas,West End Road,Negril,Westmoreland,-77.53019796,18.48358098
Palace View,"Lighthouse Road, Negril P.O.",Negril,Westmoreland,-77.530084,18.4826548
Paradise View Hotel,"N.M. Boulevard, Box 46 Negril",Negril,Westmoreland,-77.52879554,18.48485612
Peaceful Garden,,Negril,Westmoreland,-77.52685052,18.48386956
Perserverance,"Norman Manley Boulevard, P.O.",Negril,Westmoreland,-77.52416172,18.48177921
Plantation House Reso,Red Ground,Negril,Westmoreland,-77.46053214,18.47187862
Point Village Resort,Norman Manley Blvd. Box 105 N,Negril,Westmoreland,-77.41244817,"18.460032004,"
Premium Cottage,Banana Walk,Negril,Westmoreland,-77.40001145,18.45903678
Primrose Inn,West End Road,Negril,Westmoreland,-77.39994946,18.46106316
R & R Villa's,"Norman Manley Boulevard, P.O.",Negril,Westmoreland,-77.39640721,18.45923417
Rant 'n' Rave,"West End Road, P.O. Box 52, N",Negril,Westmoreland,-77.3939441,18.45188183
Rock cliff Hotel,"Light House Rd, Box 67Negril",Negril,Westmoreland,-77.34110224,18.46151454
Rock House Hotel,"Light House Rd, P.O. Box 3024",Negril,Westmoreland,-77.33992302,18.46198056
Root's Bamboo Beach,"Norman Manley Boulevard, Negr",Negril,Westmoreland,-77.33187907,18.46385889
Rum Rocks,"Point Village, Norman Manley",Negril,Westmoreland,-77.32215363,"18.448518002,"
Sam Sara Hotel,West End P.O. Box 3023,Negril,Westmoreland,-77.32061034,18.46342622
Sandi San,"N.M. Boulevard, Box 47",Negril,Westmoreland,-77.31281576,18.46765645
Sea Point Villas Ltd.,West End Rd. Negril P.O.,Negril,Westmoreland,-77.1708483,18.42514931
Sea Splash Resort,"N.M. Boulevard Box123, Negril",Negril,Westmoreland,-77.16830924,18.43211221
Seascape Villas,"N.M. Boulevard, P.O. Box 68",Negril,Westmoreland,-77.16567096,18.4317166
Secret Paradise,"West End Road, P.O. Box 56",Negril,Westmoreland,-77.16295757,18.42898192
Shields Resort,N.M. BLVD. Norman Manley Negr,Negril,Westmoreland,-77.1584794,18.42512492
Silver Point,West End Road,Negril,Westmoreland,-77.11671237,"18.401811958,"
Summerset Village,"Box 86, West End, Negril",Negril,Westmoreland,-77.10395913,18.40910171
Sunquest Cottages,Norman Manley Blvd,Negril,Westmoreland,-77.10053221,18.41226591
Swept Away Hotel (All,"P.O. Box 3077, N.M. Blvd.",Negril,Westmoreland,-77.09598512,18.4098009
Tensing Pen,"P.O. Box 2013, West End",Negril,Westmoreland,-77.09480523,18.41010845
The Caves,"Lighthouse Road, P.O. Box 15",Negril,Westmoreland,-77.08446734,18.40986369
Tigress Cottage #1,"P.O. Box 126, West End Road",Negril,Westmoreland,-77.069309,18.40966333
Tigress Cottage #2,"P.O. Box 3053, West End Road",Negril,Westmoreland,-77.06886585,18.41610286
Travellers Beach Reso,Norman Manley Boulevard,Negril,Westmoreland,-77.05703902,18.41113991
T-Waters Beach Hotel,N.M. BLVD. P.O. Box 11Negril,Negril,Westmoreland,-77.04141673,18.42151654
Vanvilla,Whitehall Road,Negril,Westmoreland,-77.03926602,18.42064431
Villa la Cage,"West End Road, Negril P.O. Bo",Negril,Westmoreland,-76.98284619,18.40528498
Villa Mora,Norman Manley Blvd,Negril,Westmoreland,-76.97388599,18.40595498
Westport Cottage,Norman Manley Blvd,Negril,Westmoreland,-76.87410829,17.95087535
Whistling Bird,"Norman Manley Blvd, P.O. Box",Negril,Westmoreland,-76.79467291,18.00702148
White Sands Cottage,"Norman Manley Boulevard, P.O.",Negril,Westmoreland,-76.79189577,18.00601786
Xtabi Club,"Lighthouse Road, P.O. Box 301",Negril,Westmoreland,-76.77276446,18.02086291
Yellowbird Seatel,"Norman Manley Blvd, P.O. Box",Negril,Westmoreland,-76.77105537,18.00502098
Caribbean Delight,Norman Manley Boulevard,Negril P.O.,Westmoreland,-78.33895169,18.29537993
Rondel Village,"N.M. Boulevard, Negril P.O.",Negrill,Westmoreland,-77.33335397,18.46395164
Negril Beach Resort (,"N.M. Boulevard, P.O. Box 75",Negrio,Westmoreland,-77.53838589,18.47948237
Locheil Guest House,"P.O. Box 56, Sav-la-mar P.O.",Paradise,Westmoreland,-77.84619068,"18.524350695,"
Commingle the Hotel,"7 Hudson Street, Savanna La M",Savanna La Mar,Westmoreland,-78.07742058,18.44839076
Moun Tambrin Retreat,"120 Great George Street, P.O.",Savanna-la-mar,Westmoreland,-77.5410001,18.48518723
Orchard Great House,"Strathbogie, P.O. Box 11",Savanna-la-mar,Westmoreland,-77.53225474,18.48554845
Catton Tree Place,"West End Road, Negril P.O. Bo",West End,Westmoreland,-78.33736829,18.31919831
Doc's Delight,Light House Road,West End,Westmoreland,-78.05649855,18.45199485
Mariner's Inn,"West End Road, P.O. Box 61 Ne",West End,Westmoreland,-77.76068072,17.87812606
Ocean Edge Resort,West End Rd. P.O. Box 71 Negr,West End,Westmoreland,-77.53440273,18.48618019
Thrills Hotel,"West End Box 99, Negril P.O.",West End,Westmoreland,-77.07337974,18.41384565
Blue Cave Castle,"P.O. Box 66, Negril P.O.","West End, Negril",Westmoreland,-78.35424255,"18.278715738,"
Mango Tree Holiday Sp,Westland Road,Westlands,Westmoreland,-77.76542362,17.88537625
Hospitality Inn,"66 South Sea Park, Whitehouse",Whitehouse,Westmoreland,-77.9046521,18.47851144
Natania's Guest House,,Whitehouse,Westmoreland,-77.53980365,18.48676102
Roots Uprising,"139 South Sea Park, Whitehous",Whitehouse,Westmoreland,-77.32765264,"18.463322957,"
Villa Niderox,Lot 126 Culloden,Whitehouse,Westmoreland,-76.96776069,18.16957715
White House Beach Vil,White House P.O.,Whitehouse,Westmoreland,-76.79255734,18.00507684
Emerald Hotel,"Westlands Mountain Road, Negr",Negril,Westmoreland,-78.05201648,18.4476201
Mahogany Inn,Negril P.O. Box 61,Negril,Westmoreland,-77.81444485,18.52224843
Silver Sands Hotel,"Norman Manley Blvd, P.O. Box",Negril,Westmoreland,-77.11320677,18.40492647
Singles Hotel,Negril P.O. Box 109,Negril,Westmoreland,-77.11173114,18.40396944
